{
  "type": "FeatureCollection",
  "features": [
    {
      "type": "Feature",
      "properties": {
        "norad_id": 54259,
        "name": "EUTELSAT 10B",
        "group": "eutelsat",
        "lat": 0.048562779449154665,
        "lon": 171.71122066357046,
        "alt_km": 35781.70807485819,
        "timestamp": "2025-12-18T04:58:34.252201+00:00",
        "meta_object_name": "EUTELSAT 10B",
        "meta_object_id": "2022-157A",
        "meta_epoch": "2025-12-17T18:30:37.758240",
        "meta_mean_motion": 1.00277655,
        "meta_eccentricity": 9.541e-05,
        "meta_inclination": 0.0602,
        "meta_ra_of_asc_node": 99.2885,
        "meta_arg_of_pericenter": 24.5872,
        "meta_mean_anomaly": 250.4145,
        "meta_ephemeris_type": 0,
        "meta_classification_type": "U",
        "meta_norad_cat_id": 54259,
        "meta_element_set_no": 999,
        "meta_rev_at_epoch": 1120,
        "meta_bstar": 0,
        "meta_mean_motion_dot": 9.4e-07,
        "meta_mean_motion_ddot": 0,
        "tle_line1": "1 54259U 22157A   25351.77127035  .00000094  00000+0  00000+0 0  9991",
        "tle_line2": "2 54259   0.0602  99.2885 0000954  24.5872 250.4145  1.00277655 11200"
      },
      "geometry": {
        "type": "Point",
        "coordinates": [
          171.71122066357046,
          0.048562779449154665
        ]
      }
    },
    {
      "type": "Feature",
      "properties": {
        "norad_id": 59346,
        "name": "EUTELSAT 36D",
        "group": "eutelsat",
        "lat": -0.012384198757114384,
        "lon": -162.46533296799447,
        "alt_km": 35788.63685175226,
        "timestamp": "2025-12-18T04:58:34.252213+00:00",
        "meta_object_name": "EUTELSAT 36D",
        "meta_object_id": "2024-059A",
        "meta_epoch": "2025-12-17T20:50:38.634144",
        "meta_mean_motion": 1.00271863,
        "meta_eccentricity": 6.433e-05,
        "meta_inclination": 0.0249,
        "meta_ra_of_asc_node": 12.684,
        "meta_arg_of_pericenter": 350.764,
        "meta_mean_anomaly": 71.7843,
        "meta_ephemeris_type": 0,
        "meta_classification_type": "U",
        "meta_norad_cat_id": 59346,
        "meta_element_set_no": 999,
        "meta_rev_at_epoch": 632,
        "meta_bstar": 0,
        "meta_mean_motion_dot": 0,
        "meta_mean_motion_ddot": 0,
        "tle_line1": "1 59346U 24059A   25351.86850271  .00000000  00000+0  00000+0 0  9998",
        "tle_line2": "2 59346   0.0249  12.6840 0000643 350.7640  71.7843  1.00271863  6322"
      },
      "geometry": {
        "type": "Point",
        "coordinates": [
          -162.46533296799447,
          -0.012384198757114384
        ]
      }
    }
  ]
}